<?xml version="1.0" encoding="UTF-8"?>
<ndm xmlns:xsi="http://www.w3.org/2001/XMLSchema-instance" xsi:noNamespaceSchemaLocation="https://sanaregistry.org/r/ndmxml_unqualified/ndmxml-2.0.0-master-2.0.xsd">
<omm id="CCSDS_OMM_VERS" version="2.0">
<header><CREATION_DATE/><ORIGINATOR/></header><body><segment><metadata><OBJECT_NAME>GLOBALSTAR M094</OBJECT_NAME><OBJECT_ID>2013-005C</OBJECT_ID><CENTER_NAME>EARTH</CENTER_NAME><REF_FRAME>TEME</REF_FRAME><TIME_SYSTEM>UTC</TIME_SYSTEM><MEAN_ELEMENT_THEORY>SGP4</MEAN_ELEMENT_THEORY></metadata><data><meanElements><EPOCH>2024-12-15T15:04:36.189696</EPOCH><MEAN_MOTION>12.62266101</MEAN_MOTION><ECCENTRICITY>.000036</ECCENTRICITY><INCLINATION>51.9978</INCLINATION><RA_OF_ASC_NODE>20.9995</RA_OF_ASC_NODE><ARG_OF_PERICENTER>167.3872</ARG_OF_PERICENTER><MEAN_ANOMALY>192.7004</MEAN_ANOMALY></meanElements><tleParameters><EPHEMERIS_TYPE>0</EPHEMERIS_TYPE><CLASSIFICATION_TYPE>U</CLASSIFICATION_TYPE><NORAD_CAT_ID>39074</NORAD_CAT_ID><ELEMENT_SET_NO>999</ELEMENT_SET_NO><REV_AT_EPOCH>54919</REV_AT_EPOCH><BSTAR>.10748E-3</BSTAR><MEAN_MOTION_DOT>-.85E-6</MEAN_MOTION_DOT><MEAN_MOTION_DDOT>0</MEAN_MOTION_DDOT></tleParameters></data></segment></body></omm>
<omm id="CCSDS_OMM_VERS" version="2.0">
<header><CREATION_DATE/><ORIGINATOR/></header><body><segment><metadata><OBJECT_NAME>GLOBALSTAR M096</OBJECT_NAME><OBJECT_ID>2013-005D</OBJECT_ID><CENTER_NAME>EARTH</CENTER_NAME><REF_FRAME>TEME</REF_FRAME><TIME_SYSTEM>UTC</TIME_SYSTEM><MEAN_ELEMENT_THEORY>SGP4</MEAN_ELEMENT_THEORY></metadata><data><meanElements><EPOCH>2024-12-16T04:41:47.312736</EPOCH><MEAN_MOTION>12.62265684</MEAN_MOTION><ECCENTRICITY>.0000731</ECCENTRICITY><INCLINATION>52.0086</INCLINATION><RA_OF_ASC_NODE>67.6429</RA_OF_ASC_NODE><ARG_OF_PERICENTER>148.9160</ARG_OF_PERICENTER><MEAN_ANOMALY>211.1750</MEAN_ANOMALY></meanElements><tleParameters><EPHEMERIS_TYPE>0</EPHEMERIS_TYPE><CLASSIFICATION_TYPE>U</CLASSIFICATION_TYPE><NORAD_CAT_ID>39075</NORAD_CAT_ID><ELEMENT_SET_NO>999</ELEMENT_SET_NO><REV_AT_EPOCH>54853</REV_AT_EPOCH><BSTAR>.12374E-3</BSTAR><MEAN_MOTION_DOT>-.82E-6</MEAN_MOTION_DOT><MEAN_MOTION_DDOT>0</MEAN_MOTION_DDOT></tleParameters></data></segment></body></omm>
<omm id="CCSDS_OMM_VERS" version="2.0">
<header><CREATION_DATE/><ORIGINATOR/></header><body><segment><metadata><OBJECT_NAME>GLOBALSTAR M078</OBJECT_NAME><OBJECT_ID>2013-005E</OBJECT_ID><CENTER_NAME>EARTH</CENTER_NAME><REF_FRAME>TEME</REF_FRAME><TIME_SYSTEM>UTC</TIME_SYSTEM><MEAN_ELEMENT_THEORY>SGP4</MEAN_ELEMENT_THEORY></metadata><data><meanElements><EPOCH>2024-12-15T20:26:53.369376</EPOCH><MEAN_MOTION>12.62267635</MEAN_MOTION><ECCENTRICITY>.000182</ECCENTRICITY><INCLINATION>51.9846</INCLINATION><RA_OF_ASC_NODE>153.4447</RA_OF_ASC_NODE><ARG_OF_PERICENTER>117.6419</ARG_OF_PERICENTER><MEAN_ANOMALY>242.4632</MEAN_ANOMALY></meanElements><tleParameters><EPHEMERIS_TYPE>0</EPHEMERIS_TYPE><CLASSIFICATION_TYPE>U</CLASSIFICATION_TYPE><NORAD_CAT_ID>39076</NORAD_CAT_ID><ELEMENT_SET_NO>999</ELEMENT_SET_NO><REV_AT_EPOCH>54676</REV_AT_EPOCH><BSTAR>-.62119E-4</BSTAR><MEAN_MOTION_DOT>-.115E-5</MEAN_MOTION_DOT><MEAN_MOTION_DDOT>0</MEAN_MOTION_DDOT></tleParameters></data></segment></body></omm>
<omm id="CCSDS_OMM_VERS" version="2.0">
<header><CREATION_DATE/><ORIGINATOR/></header><body><segment><metadata><OBJECT_NAME>GLOBALSTAR M095</OBJECT_NAME><OBJECT_ID>2013-005F</OBJECT_ID><CENTER_NAME>EARTH</CENTER_NAME><REF_FRAME>TEME</REF_FRAME><TIME_SYSTEM>UTC</TIME_SYSTEM><MEAN_ELEMENT_THEORY>SGP4</MEAN_ELEMENT_THEORY></metadata><data><meanElements><EPOCH>2024-12-15T19:11:29.353920</EPOCH><MEAN_MOTION>12.62269703</MEAN_MOTION><ECCENTRICITY>.0001413</ECCENTRICITY><INCLINATION>51.9774</INCLINATION><RA_OF_ASC_NODE>150.8947</RA_OF_ASC_NODE><ARG_OF_PERICENTER>124.2899</ARG_OF_PERICENTER><MEAN_ANOMALY>235.8101</MEAN_ANOMALY></meanElements><tleParameters><EPHEMERIS_TYPE>0</EPHEMERIS_TYPE><CLASSIFICATION_TYPE>U</CLASSIFICATION_TYPE><NORAD_CAT_ID>39077</NORAD_CAT_ID><ELEMENT_SET_NO>999</ELEMENT_SET_NO><REV_AT_EPOCH>54697</REV_AT_EPOCH><BSTAR>-.25552E-4</BSTAR><MEAN_MOTION_DOT>-.108E-5</MEAN_MOTION_DOT><MEAN_MOTION_DDOT>0</MEAN_MOTION_DDOT></tleParameters></data></segment></body></omm>
<omm id="CCSDS_OMM_VERS" version="2.0">
<header><CREATION_DATE/><ORIGINATOR/></header><body><segment><metadata><OBJECT_NAME>GLOBALSTAR M087</OBJECT_NAME><OBJECT_ID>2022-064A</OBJECT_ID><CENTER_NAME>EARTH</CENTER_NAME><REF_FRAME>TEME</REF_FRAME><TIME_SYSTEM>UTC</TIME_SYSTEM><MEAN_ELEMENT_THEORY>SGP4</MEAN_ELEMENT_THEORY></metadata><data><meanElements><EPOCH>2024-12-16T02:26:53.032416</EPOCH><MEAN_MOTION>13.05069235</MEAN_MOTION><ECCENTRICITY>.000921</ECCENTRICITY><INCLINATION>51.9786</INCLINATION><RA_OF_ASC_NODE>296.2060</RA_OF_ASC_NODE><ARG_OF_PERICENTER>256.5280</ARG_OF_PERICENTER><MEAN_ANOMALY>103.4580</MEAN_ANOMALY></meanElements><tleParameters><EPHEMERIS_TYPE>0</EPHEMERIS_TYPE><CLASSIFICATION_TYPE>U</CLASSIFICATION_TYPE><NORAD_CAT_ID>52888</NORAD_CAT_ID><ELEMENT_SET_NO>999</ELEMENT_SET_NO><REV_AT_EPOCH>12183</REV_AT_EPOCH><BSTAR>.2671E-3</BSTAR><MEAN_MOTION_DOT>-.31E-6</MEAN_MOTION_DOT><MEAN_MOTION_DDOT>0</MEAN_MOTION_DDOT></tleParameters></data></segment></body></omm>
</ndm>
