GLOBALSTAR M094         
1 39074U 13005C   24350.62819664 -.00000085  00000+0  10748-3 0  9994
2 39074  51.9978  20.9995 0000360 167.3872 192.7004 12.62266101549199
GLOBALSTAR M096         
1 39075U 13005D   24351.19568649 -.00000082  00000+0  12374-3 0  9996
2 39075  52.0086  67.6429 0000731 148.9160 211.1750 12.62265684548535
GLOBALSTAR M078         
1 39076U 13005E   24350.85200659 -.00000115  00000+0 -62119-4 0  9994
2 39076  51.9846 153.4447 0001820 117.6419 242.4632 12.62267635546769
GLOBALSTAR M095         
1 39077U 13005F   24350.79964530 -.00000108  00000+0 -25552-4 0  9995
2 39077  51.9774 150.8947 0001413 124.2899 235.8101 12.62269703546978
GLOBALSTAR M087         
1 52888U 22064A   24351.10200269 -.00000031  00000+0  26710-3 0  9993
2 52888  51.9786 296.2060 0009210 256.5280 103.4580 13.05069235121834
